[{"OBJECT_NAME":"COSMOS 2597 (RODNIK-S 22)","OBJECT_ID":"2025-273A","EPOCH":"2026-03-09T21:46:58.251360","MEAN_MOTION":12.42896743,"ECCENTRICITY":0.00124298,"INCLINATION":82.4965,"RA_OF_ASC_NODE":232.2436,"ARG_OF_PERICENTER":77.3959,"MEAN_ANOMALY":282.851,"EPHEMERIS_TYPE":0,"CLASSIFICATION_TYPE":"U","NORAD_CAT_ID":66647,"ELEMENT_SET_NO":999,"REV_AT_EPOCH":1296,"BSTAR":0.0001853085,"MEAN_MOTION_DOT":3.6e-7,"MEAN_MOTION_DDOT":0},{"OBJECT_NAME":"NOAA 3","OBJECT_ID":"1973-086A","EPOCH":"2026-03-09T23:49:47.658144","MEAN_MOTION":12.40391692,"ECCENTRICITY":0.00061965,"INCLINATION":102.2907,"RA_OF_ASC_NODE":81.9743,"ARG_OF_PERICENTER":308.2428,"MEAN_ANOMALY":107.6261,"EPHEMERIS_TYPE":0,"CLASSIFICATION_TYPE":"U","NORAD_CAT_ID":6920,"ELEMENT_SET_NO":999,"REV_AT_EPOCH":36960,"BSTAR":4.9720382e-5,"MEAN_MOTION_DOT":-4.0e-7,"MEAN_MOTION_DDOT":0}]
